[
  {
    "OBJECT_NAME": "STARLINK-1522",
    "OBJECT_ID": "20055A",
    "EPOCH": "2025-11-11T06:23:45.975840",
    "MEAN_MOTION": 15.06397291,
    "ECCENTRICITY": 0.0001688,
    "INCLINATION": 53.0565,
    "RA_OF_ASC_NODE": 298.242,
    "ARG_OF_PERICENTER": 94.418,
    "MEAN_ANOMALY": 265.7002,
    "EPHEMERIS_TYPE": 0,
    "CLASSIFICATION_TYPE": "U",
    "NORAD_CAT_ID": 46027,
    "ELEMENT_SET_NO": 999,
    "REV_AT_EPOCH": 29103,
    "BSTAR": 8.5347e-05,
    "MEAN_MOTION_DOT": 9.9e-06,
    "MEAN_MOTION_DDOT": 0.0,
    "TLE_LINE1": "1 46027U 20055A   25315.26650435  .00000990  00000+0  85347-4 0  9996",
    "TLE_LINE2": "2 46027  53.0565 298.2420 0001688  94.4180 265.7002 15.06397291291031",
    "COMMENT": "Grouped by shell and plane from TLE"
  },
  {
    "OBJECT_NAME": "STARLINK-1523",
    "OBJECT_ID": "20055B",
    "EPOCH": "2025-11-11T05:09:27.346176",
    "MEAN_MOTION": 15.06397543,
    "ECCENTRICITY": 0.0001281,
    "INCLINATION": 53.0541,
    "RA_OF_ASC_NODE": 298.4717,
    "ARG_OF_PERICENTER": 96.0077,
    "MEAN_ANOMALY": 264.1058,
    "EPHEMERIS_TYPE": 0,
    "CLASSIFICATION_TYPE": "U",
    "NORAD_CAT_ID": 46028,
    "ELEMENT_SET_NO": 999,
    "REV_AT_EPOCH": 29104,
    "BSTAR": 4.0285e-05,
    "MEAN_MOTION_DOT": 3.19e-06,
    "MEAN_MOTION_DDOT": 0.0,
    "TLE_LINE1": "1 46028U 20055B   25315.21489984  .00000319  00000+0  40285-4 0  9998",
    "TLE_LINE2": "2 46028  53.0541 298.4717 0001281  96.0077 264.1058 15.06397543291044",
    "COMMENT": "Grouped by shell and plane from TLE"
  },
  {
    "OBJECT_NAME": "STARLINK-1526",
    "OBJECT_ID": "20055C",
    "EPOCH": "2025-11-11T06:34:22.707552",
    "MEAN_MOTION": 15.06391497,
    "ECCENTRICITY": 0.0001443,
    "INCLINATION": 53.0549,
    "RA_OF_ASC_NODE": 298.2041,
    "ARG_OF_PERICENTER": 89.876,
    "MEAN_ANOMALY": 270.2395,
    "EPHEMERIS_TYPE": 0,
    "CLASSIFICATION_TYPE": "U",
    "NORAD_CAT_ID": 46029,
    "ELEMENT_SET_NO": 999,
    "REV_AT_EPOCH": 29104,
    "BSTAR": 5.1157e-05,
    "MEAN_MOTION_DOT": 4.8e-06,
    "MEAN_MOTION_DDOT": 0.0,
    "TLE_LINE1": "1 46029U 20055C   25315.27387393  .00000480  00000+0  51157-4 0  9995",
    "TLE_LINE2": "2 46029  53.0549 298.2041 0001443  89.8760 270.2395 15.06391497291044",
    "COMMENT": "Grouped by shell and plane from TLE"
  },
  {
    "OBJECT_NAME": "STARLINK-1555",
    "OBJECT_ID": "20055F",
    "EPOCH": "2025-11-11T06:13:08.439744",
    "MEAN_MOTION": 15.06409287,
    "ECCENTRICITY": 0.0001298,
    "INCLINATION": 53.0547,
    "RA_OF_ASC_NODE": 298.2719,
    "ARG_OF_PERICENTER": 86.3543,
    "MEAN_ANOMALY": 273.7594,
    "EPHEMERIS_TYPE": 0,
    "CLASSIFICATION_TYPE": "U",
    "NORAD_CAT_ID": 46032,
    "ELEMENT_SET_NO": 999,
    "REV_AT_EPOCH": 29104,
    "BSTAR": 0.00034904,
    "MEAN_MOTION_DOT": 4.923e-05,
    "MEAN_MOTION_DDOT": 0.0,
    "TLE_LINE1": "1 46032U 20055F   25315.25912546  .00004923  00000+0  34904-3 0  9997",
    "TLE_LINE2": "2 46032  53.0547 298.2719 0001298  86.3543 273.7594 15.06409287291043",
    "COMMENT": "Grouped by shell and plane from TLE"
  },
  {
    "OBJECT_NAME": "STARLINK-1556",
    "OBJECT_ID": "20055G",
    "EPOCH": "2025-11-11T05:46:37.416576",
    "MEAN_MOTION": 15.0641137,
    "ECCENTRICITY": 0.0001348,
    "INCLINATION": 53.0544,
    "RA_OF_ASC_NODE": 298.3525,
    "ARG_OF_PERICENTER": 95.0004,
    "MEAN_ANOMALY": 265.1139,
    "EPHEMERIS_TYPE": 0,
    "CLASSIFICATION_TYPE": "U",
    "NORAD_CAT_ID": 46033,
    "ELEMENT_SET_NO": 999,
    "REV_AT_EPOCH": 29101,
    "BSTAR": 0.000201,
    "MEAN_MOTION_DOT": 2.715e-05,
    "MEAN_MOTION_DDOT": 0.0,
    "TLE_LINE1": "1 46033U 20055G   25315.24071084  .00002715  00000+0  20100-3 0  9990",
    "TLE_LINE2": "2 46033  53.0544 298.3525 0001348  95.0004 265.1139 15.06411370291015",
    "COMMENT": "Grouped by shell and plane from TLE"
  },
  {
    "OBJECT_NAME": "STARLINK-1557",
    "OBJECT_ID": "20055H",
    "EPOCH": "2025-11-11T05:51:55.278720",
    "MEAN_MOTION": 15.06393883,
    "ECCENTRICITY": 0.0001388,
    "INCLINATION": 53.0552,
    "RA_OF_ASC_NODE": 298.3387,
    "ARG_OF_PERICENTER": 91.493,
    "MEAN_ANOMALY": 268.6218,
    "EPHEMERIS_TYPE": 0,
    "CLASSIFICATION_TYPE": "U",
    "NORAD_CAT_ID": 46034,
    "ELEMENT_SET_NO": 999,
    "REV_AT_EPOCH": 29101,
    "BSTAR": 9.8254e-05,
    "MEAN_MOTION_DOT": 1.182e-05,
    "MEAN_MOTION_DDOT": 0.0,
    "TLE_LINE1": "1 46034U 20055H   25315.24438980  .00001182  00000+0  98254-4 0  9996",
    "TLE_LINE2": "2 46034  53.0552 298.3387 0001388  91.4930 268.6218 15.06393883291017",
    "COMMENT": "Grouped by shell and plane from TLE"
  },
  {
    "OBJECT_NAME": "STARLINK-1558",
    "OBJECT_ID": "20055J",
    "EPOCH": "2025-11-11T06:02:31.798752",
    "MEAN_MOTION": 15.06401693,
    "ECCENTRICITY": 0.0001409,
    "INCLINATION": 53.0557,
    "RA_OF_ASC_NODE": 298.3078,
    "ARG_OF_PERICENTER": 98.7122,
    "MEAN_ANOMALY": 261.4027,
    "EPHEMERIS_TYPE": 0,
    "CLASSIFICATION_TYPE": "U",
    "NORAD_CAT_ID": 46035,
    "ELEMENT_SET_NO": 999,
    "REV_AT_EPOCH": 29104,
    "BSTAR": 0.00015837999999999998,
    "MEAN_MOTION_DOT": 2.078e-05,
    "MEAN_MOTION_DDOT": 0.0,
    "TLE_LINE1": "1 46035U 20055J   25315.25175693  .00002078  00000+0  15838-3 0  9998",
    "TLE_LINE2": "2 46035  53.0557 298.3078 0001409  98.7122 261.4027 15.06401693291048",
    "COMMENT": "Grouped by shell and plane from TLE"
  },
  {
    "OBJECT_NAME": "STARLINK-1560",
    "OBJECT_ID": "20055K",
    "EPOCH": "2025-11-11T05:41:18.669696",
    "MEAN_MOTION": 15.06400987,
    "ECCENTRICITY": 0.0001432,
    "INCLINATION": 53.0553,
    "RA_OF_ASC_NODE": 298.3759,
    "ARG_OF_PERICENTER": 85.7609,
    "MEAN_ANOMALY": 274.3543,
    "EPHEMERIS_TYPE": 0,
    "CLASSIFICATION_TYPE": "U",
    "NORAD_CAT_ID": 46036,
    "ELEMENT_SET_NO": 999,
    "REV_AT_EPOCH": 29104,
    "BSTAR": 0.00022532,
    "MEAN_MOTION_DOT": 3.076e-05,
    "MEAN_MOTION_DDOT": 0.0,
    "TLE_LINE1": "1 46036U 20055K   25315.23702164  .00003076  00000+0  22532-3 0  9994",
    "TLE_LINE2": "2 46036  53.0553 298.3759 0001432  85.7609 274.3543 15.06400987291044",
    "COMMENT": "Grouped by shell and plane from TLE"
  },
  {
    "OBJECT_NAME": "STARLINK-1567",
    "OBJECT_ID": "20055M",
    "EPOCH": "2025-11-11T05:57:13.285152",
    "MEAN_MOTION": 15.06402744,
    "ECCENTRICITY": 0.0001575,
    "INCLINATION": 53.0549,
    "RA_OF_ASC_NODE": 298.322,
    "ARG_OF_PERICENTER": 93.3635,
    "MEAN_ANOMALY": 266.7535,
    "EPHEMERIS_TYPE": 0,
    "CLASSIFICATION_TYPE": "U",
    "NORAD_CAT_ID": 46038,
    "ELEMENT_SET_NO": 999,
    "REV_AT_EPOCH": 29103,
    "BSTAR": 1.3981e-06,
    "MEAN_MOTION_DOT": -2.61e-06,
    "MEAN_MOTION_DDOT": 0.0,
    "TLE_LINE1": "1 46038U 20055M   25315.24807043 -.00000261  00000+0  13981-5 0  9993",
    "TLE_LINE2": "2 46038  53.0549 298.3220 0001575  93.3635 266.7535 15.06402744291034",
    "COMMENT": "Grouped by shell and plane from TLE"
  },
  {
    "OBJECT_NAME": "STARLINK-1569",
    "OBJECT_ID": "20055N",
    "EPOCH": "2025-11-11T04:32:18.010176",
    "MEAN_MOTION": 15.06405751,
    "ECCENTRICITY": 0.0001778,
    "INCLINATION": 53.0554,
    "RA_OF_ASC_NODE": 298.5891,
    "ARG_OF_PERICENTER": 94.8827,
    "MEAN_ANOMALY": 265.2365,
    "EPHEMERIS_TYPE": 0,
    "CLASSIFICATION_TYPE": "U",
    "NORAD_CAT_ID": 46039,
    "ELEMENT_SET_NO": 999,
    "REV_AT_EPOCH": 29102,
    "BSTAR": 1.5186000000000002e-06,
    "MEAN_MOTION_DOT": -2.59e-06,
    "MEAN_MOTION_DDOT": 0.0,
    "TLE_LINE1": "1 46039U 20055N   25315.18909734 -.00000259  00000+0  15186-5 0  9993",
    "TLE_LINE2": "2 46039  53.0554 298.5891 0001778  94.8827 265.2365 15.06405751291026",
    "COMMENT": "Grouped by shell and plane from TLE"
  },
  {
    "OBJECT_NAME": "STARLINK-1582",
    "OBJECT_ID": "20055S",
    "EPOCH": "2025-11-11T06:18:28.021248",
    "MEAN_MOTION": 15.06393701,
    "ECCENTRICITY": 0.0001501,
    "INCLINATION": 53.055,
    "RA_OF_ASC_NODE": 298.2574,
    "ARG_OF_PERICENTER": 89.8803,
    "MEAN_ANOMALY": 270.2358,
    "EPHEMERIS_TYPE": 0,
    "CLASSIFICATION_TYPE": "U",
    "NORAD_CAT_ID": 46043,
    "ELEMENT_SET_NO": 999,
    "REV_AT_EPOCH": 29103,
    "BSTAR": 3.5049e-05,
    "MEAN_MOTION_DOT": 2.41e-06,
    "MEAN_MOTION_DDOT": 0.0,
    "TLE_LINE1": "1 46043U 20055S   25315.26282432  .00000241  00000+0  35049-4 0  9995",
    "TLE_LINE2": "2 46043  53.0550 298.2574 0001501  89.8803 270.2358 15.06393701291034",
    "COMMENT": "Grouped by shell and plane from TLE"
  },
  {
    "OBJECT_NAME": "STARLINK-1591",
    "OBJECT_ID": "20055U",
    "EPOCH": "2025-11-11T05:20:04.513344",
    "MEAN_MOTION": 15.06413173,
    "ECCENTRICITY": 0.000143,
    "INCLINATION": 53.0549,
    "RA_OF_ASC_NODE": 298.4374,
    "ARG_OF_PERICENTER": 101.5485,
    "MEAN_ANOMALY": 258.5664,
    "EPHEMERIS_TYPE": 0,
    "CLASSIFICATION_TYPE": "U",
    "NORAD_CAT_ID": 46045,
    "ELEMENT_SET_NO": 999,
    "REV_AT_EPOCH": 29101,
    "BSTAR": 0.00019434,
    "MEAN_MOTION_DOT": 2.615e-05,
    "MEAN_MOTION_DDOT": 0.0,
    "TLE_LINE1": "1 46045U 20055U   25315.22227446  .00002615  00000+0  19434-3 0  9993",
    "TLE_LINE2": "2 46045  53.0549 298.4374 0001430 101.5485 258.5664 15.06413173291016",
    "COMMENT": "Grouped by shell and plane from TLE"
  },
  {
    "OBJECT_NAME": "STARLINK-2754",
    "OBJECT_ID": "21044D",
    "EPOCH": "2025-11-11T05:18:05.843808",
    "MEAN_MOTION": 15.06385333,
    "ECCENTRICITY": 0.0001542,
    "INCLINATION": 53.0549,
    "RA_OF_ASC_NODE": 293.4451,
    "ARG_OF_PERICENTER": 104.7741,
    "MEAN_ANOMALY": 255.3419,
    "EPHEMERIS_TYPE": 0,
    "CLASSIFICATION_TYPE": "U",
    "NORAD_CAT_ID": 48641,
    "ELEMENT_SET_NO": 999,
    "REV_AT_EPOCH": 24585,
    "BSTAR": 0.0,
    "MEAN_MOTION_DOT": -1.246e-05,
    "MEAN_MOTION_DDOT": 0.0,
    "TLE_LINE1": "1 48641U 21044D   25315.22090097 -.00001246  00000+0 -64790-4 0  9993",
    "TLE_LINE2": "2 48641  53.0549 293.4451 0001542 104.7741 255.3419 15.06385333245855",
    "COMMENT": "Grouped by shell and plane from TLE"
  }
]